[{"OBJECT_NAME":"STARLINK-6060","OBJECT_ID":"2023-078AD","EPOCH":"2026-03-09T21:17:56.872320","MEAN_MOTION":14.98332481,"ECCENTRICITY":0.00029192,"INCLINATION":70.0005,"RA_OF_ASC_NODE":323.9385,"ARG_OF_PERICENTER":268.0056,"MEAN_ANOMALY":92.0768,"EPHEMERIS_TYPE":0,"CLASSIFICATION_TYPE":"U","NORAD_CAT_ID":56794,"ELEMENT_SET_NO":999,"REV_AT_EPOCH":15320,"BSTAR":-3.3518413e-5,"MEAN_MOTION_DOT":-4.93e-6,"MEAN_MOTION_DDOT":0},{"OBJECT_NAME":"CXBN","OBJECT_ID":"2012-048E","EPOCH":"2026-03-09T15:19:34.514688","MEAN_MOTION":15.19824857,"ECCENTRICITY":0.0107387,"INCLINATION":64.6612,"RA_OF_ASC_NODE":146.5396,"ARG_OF_PERICENTER":203.7806,"MEAN_ANOMALY":155.8339,"EPHEMERIS_TYPE":0,"CLASSIFICATION_TYPE":"U","NORAD_CAT_ID":38762,"ELEMENT_SET_NO":999,"REV_AT_EPOCH":10314,"BSTAR":0.00060054,"MEAN_MOTION_DOT":0.00014901,"MEAN_MOTION_DDOT":0}]
